[{"OBJECT_NAME":"PAYLOAD B","OBJECT_ID":"2021-076B","EPOCH":"2026-03-09T23:07:58.430208","MEAN_MOTION":14.09434158,"ECCENTRICITY":0.00205271,"INCLINATION":86.4029,"RA_OF_ASC_NODE":122.8006,"ARG_OF_PERICENTER":151.2326,"MEAN_ANOMALY":208.9992,"EPHEMERIS_TYPE":0,"CLASSIFICATION_TYPE":"U","NORAD_CAT_ID":49113,"ELEMENT_SET_NO":999,"REV_AT_EPOCH":23345,"BSTAR":0.00012894921,"MEAN_MOTION_DOT":2.44e-6,"MEAN_MOTION_DDOT":0},{"OBJECT_NAME":"SCOUT X-4 R\/B","OBJECT_ID":"1964-026D","EPOCH":"2026-03-09T19:51:12.132864","MEAN_MOTION":14.10744115,"ECCENTRICITY":0.0040553,"INCLINATION":90.4501,"RA_OF_ASC_NODE":172.8859,"ARG_OF_PERICENTER":24.5611,"MEAN_ANOMALY":335.7493,"EPHEMERIS_TYPE":0,"CLASSIFICATION_TYPE":"U","NORAD_CAT_ID":809,"ELEMENT_SET_NO":999,"REV_AT_EPOCH":16413,"BSTAR":0.00014431847,"MEAN_MOTION_DOT":2.69e-6,"MEAN_MOTION_DDOT":0}]
